[
    {
        "Altitude(m)": 707297.7366142251,
        "Argument of Periapsis(deg)": 0.005695060593313534,
        "Eccentricity": 0.0,
        "Inclination(deg)": 45.0,
        "Latitude(deg)": 45.10369305807727,
        "Longitude(deg)": 91.21945549183322,
        "Mean Anomaly(deg)": 87.58480832374043,
        "RAAN(deg)": 104.99462402927091,
        "Satellite Name": "Constellation 1 467",
        "Satellite Number": 467,
        "Semi-Major Axis(m)": 7083131.272910544,
        "Time(s)": 95
    },
    {
        "Altitude(m)": 707298.3164316299,
        "Argument of Periapsis(deg)": 0.00575500859955894,
        "Eccentricity": 0.0,
        "Inclination(deg)": 45.0,
        "Latitude(deg)": 45.10621835209779,
        "Longitude(deg)": 91.30109238616996,
        "Mean Anomaly(deg)": 87.64550946399031,
        "RAAN(deg)": 104.99456744010533,
        "Satellite Name": "Constellation 1 467",
        "Satellite Number": 467,
        "Semi-Major Axis(m)": 7083131.272910544,
        "Time(s)": 96
    },
    {
        "Altitude(m)": 707298.8816739899,
        "Argument of Periapsis(deg)": 0.005814956605804345,
        "Eccentricity": 0.0,
        "Inclination(deg)": 45.0,
        "Latitude(deg)": 45.10867929020664,
        "Longitude(deg)": 91.3827369083794,
        "Mean Anomaly(deg)": 87.70621060424021,
        "RAAN(deg)": 104.99451085093976,
        "Satellite Name": "Constellation 1 467",
        "Satellite Number": 467,
        "Semi-Major Axis(m)": 7083131.272910544,
        "Time(s)": 97
    },
    {
        "Altitude(m)": 707299.4323380367,
        "Argument of Periapsis(deg)": 0.00587490461204975,
        "Eccentricity": 0.0,
        "Inclination(deg)": 45.0,
        "Latitude(deg)": 45.111075861447915,
        "Longitude(deg)": 91.46438869903126,
        "Mean Anomaly(deg)": 87.7669117444901,
        "RAAN(deg)": 104.99445426177418,
        "Satellite Name": "Constellation 1 467",
        "Satellite Number": 467,
        "Semi-Major Axis(m)": 7083131.272910544,
        "Time(s)": 98
    },
    {
        "Altitude(m)": 707299.9684205852,
        "Argument of Periapsis(deg)": 0.005934852618295156,
        "Eccentricity": 0.0,
        "Inclination(deg)": 45.0,
        "Latitude(deg)": 45.1134080551501,
        "Longitude(deg)": 91.54604756666248,
        "Mean Anomaly(deg)": 87.82761288474,
        "RAAN(deg)": 104.99439767260863,
        "Satellite Name": "Constellation 1 467",
        "Satellite Number": 467,
        "Semi-Major Axis(m)": 7083131.272910544,
        "Time(s)": 99
    },
    {
        "Altitude(m)": 707300.4899185394,
        "Argument of Periapsis(deg)": 0.005994800624540561,
        "Eccentricity": 0.0,
        "Inclination(deg)": 45.0,
        "Latitude(deg)": 45.11567586092622,
        "Longitude(deg)": 91.62771331968321,
        "Mean Anomaly(deg)": 87.88831402498994,
        "RAAN(deg)": 104.99434108344306,
        "Satellite Name": "Constellation 1 467",
        "Satellite Number": 467,
        "Semi-Major Axis(m)": 7083131.272910544,
        "Time(s)": 100
    },
    {
        "Altitude(m)": 707300.9968288827,
        "Argument of Periapsis(deg)": 0.006054748630785968,
        "Eccentricity": 0.0,
        "Inclination(deg)": 45.0,
        "Latitude(deg)": 45.117879268674024,
        "Longitude(deg)": 91.70938576638005,
        "Mean Anomaly(deg)": 87.94901516523981,
        "RAAN(deg)": 104.99428449427748,
        "Satellite Name": "Constellation 1 467",
        "Satellite Number": 467,
        "Semi-Major Axis(m)": 7083131.272910544,
        "Time(s)": 101
    },
    {
        "Altitude(m)": 707301.4891486939,
        "Argument of Periapsis(deg)": 0.006114696637031373,
        "Eccentricity": 0.0,
        "Inclination(deg)": 45.0,
        "Latitude(deg)": 45.12001826857622,
        "Longitude(deg)": 91.7910647149195,
        "Mean Anomaly(deg)": 88.0097163054897,
        "RAAN(deg)": 104.99422790511191,
        "Satellite Name": "Constellation 1 467",
        "Satellite Number": 467,
        "Semi-Major Axis(m)": 7083131.272910544,
        "Time(s)": 102
    },
    {
        "Altitude(m)": 707301.9668751253,
        "Argument of Periapsis(deg)": 0.006174644643276778,
        "Eccentricity": 0.0,
        "Inclination(deg)": 45.0,
        "Latitude(deg)": 45.12209285110074,
        "Longitude(deg)": 91.8727499733516,
        "Mean Anomaly(deg)": 88.07041744573961,
        "RAAN(deg)": 104.99417131594636,
        "Satellite Name": "Constellation 1 467",
        "Satellite Number": 467,
        "Semi-Major Axis(m)": 7083131.272910544,
        "Time(s)": 103
    },
    {
        "Altitude(m)": 707302.430005425,
        "Argument of Periapsis(deg)": 0.006234592649522184,
        "Eccentricity": 0.0,
        "Inclination(deg)": 45.0,
        "Latitude(deg)": 45.124103007000805,
        "Longitude(deg)": 91.95444118151556,
        "Mean Anomaly(deg)": 88.13111858598953,
        "RAAN(deg)": 104.99411472678078,
        "Satellite Name": "Constellation 1 467",
        "Satellite Number": 467,
        "Semi-Major Axis(m)": 7083131.272910544,
        "Time(s)": 104
    },
    {
        "Altitude(m)": 707302.8785369176,
        "Argument of Periapsis(deg)": 0.00629454065576759,
        "Eccentricity": 0.0,
        "Inclination(deg)": 45.0,
        "Latitude(deg)": 45.126048727315315,
        "Longitude(deg)": 92.03613848343281,
        "Mean Anomaly(deg)": 88.1918197262394,
        "RAAN(deg)": 104.99405813761521,
        "Satellite Name": "Constellation 1 467",
        "Satellite Number": 467,
        "Semi-Major Axis(m)": 7083131.272910544,
        "Time(s)": 105
    },
    {
        "Altitude(m)": 707303.3124670208,
        "Argument of Periapsis(deg)": 0.006354488662012995,
        "Eccentricity": 0.0,
        "Inclination(deg)": 45.0,
        "Latitude(deg)": 45.12793000336888,
        "Longitude(deg)": 92.11784151872656,
        "Mean Anomaly(deg)": 88.2525208664893,
        "RAAN(deg)": 104.99400154844963,
        "Satellite Name": "Constellation 1 467",
        "Satellite Number": 467,
        "Semi-Major Axis(m)": 7083131.272910544,
        "Time(s)": 106
    },
    {
        "Altitude(m)": 707303.7317932331,
        "Argument of Periapsis(deg)": 0.006414436668258401,
        "Eccentricity": 0.0,
        "Inclination(deg)": 45.0,
        "Latitude(deg)": 45.12974682677203,
        "Longitude(deg)": 92.19955009501429,
        "Mean Anomaly(deg)": 88.31322200673918,
        "RAAN(deg)": 104.99394495928408,
        "Satellite Name": "Constellation 1 467",
        "Satellite Number": 467,
        "Semi-Major Axis(m)": 7083131.272910544,
        "Time(s)": 107
    },
    {
        "Altitude(m)": 707304.1365131338,
        "Argument of Periapsis(deg)": 0.0064743846745038075,
        "Eccentricity": 0.0,
        "Inclination(deg)": 45.0,
        "Latitude(deg)": 45.13149918942145,
        "Longitude(deg)": 92.28126401981378,
        "Mean Anomaly(deg)": 88.3739231469891,
        "RAAN(deg)": 104.99388837011851,
        "Satellite Name": "Constellation 1 467",
        "Satellite Number": 467,
        "Semi-Major Axis(m)": 7083131.272910544,
        "Time(s)": 108
    },
    {
        "Altitude(m)": 707304.526624407,
        "Argument of Periapsis(deg)": 0.0065343326807492125,
        "Eccentricity": 0.0,
        "Inclination(deg)": 45.0,
        "Latitude(deg)": 45.133187083500175,
        "Longitude(deg)": 92.36298310054683,
        "Mean Anomaly(deg)": 88.43462428723903,
        "RAAN(deg)": 104.99383178095293,
        "Satellite Name": "Constellation 1 467",
        "Satellite Number": 467,
        "Semi-Major Axis(m)": 7083131.272910544,
        "Time(s)": 109
    },
    {
        "Altitude(m)": 707304.9021247906,
        "Argument of Periapsis(deg)": 0.0065942806869946176,
        "Eccentricity": 0.0,
        "Inclination(deg)": 45.0,
        "Latitude(deg)": 45.13481050147766,
        "Longitude(deg)": 92.44470714454256,
        "Mean Anomaly(deg)": 88.49532542748891,
        "RAAN(deg)": 104.99377519178736,
        "Satellite Name": "Constellation 1 467",
        "Satellite Number": 467,
        "Semi-Major Axis(m)": 7083131.272910544,
        "Time(s)": 110
    },
    {
        "Altitude(m)": 707305.2630121355,
        "Argument of Periapsis(deg)": 0.006654228693240024,
        "Eccentricity": 0.0,
        "Inclination(deg)": 45.0,
        "Latitude(deg)": 45.13636943610997,
        "Longitude(deg)": 92.5264357909436,
        "Mean Anomaly(deg)": 88.55602656773883,
        "RAAN(deg)": 104.99371860262178,
        "Satellite Name": "Constellation 1 467",
        "Satellite Number": 467,
        "Semi-Major Axis(m)": 7083131.272910544,
        "Time(s)": 111
    },
    {
        "Altitude(m)": 707305.6092843671,
        "Argument of Periapsis(deg)": 0.006714176699485429,
        "Eccentricity": 0.0,
        "Inclination(deg)": 45.0,
        "Latitude(deg)": 45.13786388044003,
        "Longitude(deg)": 92.60816918309845,
        "Mean Anomaly(deg)": 88.61672770798869,
        "RAAN(deg)": 104.99366201345623,
        "Satellite Name": "Constellation 1 467",
        "Satellite Number": 467,
        "Semi-Major Axis(m)": 7083131.272910544,
        "Time(s)": 112
    },
    {
        "Altitude(m)": 707305.9409394991,
        "Argument of Periapsis(deg)": 0.006774124705730835,
        "Eccentricity": 0.0,
        "Inclination(deg)": 45.0,
        "Latitude(deg)": 45.1392938277976,
        "Longitude(deg)": 92.6899069599819,
        "Mean Anomaly(deg)": 88.67742884823862,
        "RAAN(deg)": 104.99360542429066,
        "Satellite Name": "Constellation 1 467",
        "Satellite Number": 467,
        "Semi-Major Axis(m)": 7083131.272910544,
        "Time(s)": 113
    }
]